{"type": "FeatureCollection", "features": [ {"type": "Feature", "properties": {"norad_id": 65942, "name": "BOTAN", "group": "stations", "lat": 26.18335296539284, "lon": -159.9369372894876, "alt_km": 384.1526071539174, "timestamp": "2025-12-05T05:43:13.916314+00:00", "meta": {"OBJECT_NAME": "BOTAN", "OBJECT_ID": "1998-067XP", "EPOCH": "2025-12-04T15:44:42.289728", "MEAN_MOTION": 15.60784931, "ECCENTRICITY": 0.00042645, "INCLINATION": 51.6268, "RA_OF_ASC_NODE": 180.0664, "ARG_OF_PERICENTER": 180.2775, "MEAN_ANOMALY": 179.8217, "EPHEMERIS_TYPE": 0, "CLASSIFICATION_TYPE": "U", "NORAD_CAT_ID": 65942, "ELEMENT_SET_NO": 999, "REV_AT_EPOCH": 860, "BSTAR": 0.0017279415, "MEAN_MOTION_DOT": 0.00149041, "MEAN_MOTION_DDOT": 0}, "tle": {"line1": "1 65942U 98067XP  25338.65604502  .00149041  00000+0  17279-2 0  9991", "line2": "2 65942  51.6268 180.0664 0004264 180.2775 179.8217 15.60784931  8600"}}, "geometry": {"type": "Point", "coordinates": [-159.9369372894876, 26.18335296539284]}}, {"type": "Feature", "properties": {"norad_id": 65943, "name": "E-KAGAKU-1", "group": "stations", "lat": 23.525709479499326, "lon": -22.53760954018895, "alt_km": 388.1778841772548, "timestamp": "2025-12-05T05:43:13.916324+00:00", "meta": {"OBJECT_NAME": "E-KAGAKU-1", "OBJECT_ID": "1998-067XQ", "EPOCH": "2025-12-02T21:39:34.941600", "MEAN_MOTION": 15.57714998, "ECCENTRICITY": 0.00035202, "INCLINATION": 51.6296, "RA_OF_ASC_NODE": 189.358, "ARG_OF_PERICENTER": 147.4331, "MEAN_ANOMALY": 212.6879, "EPHEMERIS_TYPE": 0, "CLASSIFICATION_TYPE": "U", "NORAD_CAT_ID": 65943, "ELEMENT_SET_NO": 999, "REV_AT_EPOCH": 832, "BSTAR": 0.00096701912, "MEAN_MOTION_DOT": 0.00073283, "MEAN_MOTION_DDOT": 0}, "tle": {"line1": "1 65943U 98067XQ  25336.90248775  .00073283  00000+0  96702-3 0  9997", "line2": "2 65943  51.6296 189.3580 0003520 147.4331 212.6879 15.57714998  8329"}}, "geometry": {"type": "Point", "coordinates": [-22.53760954018895, 23.525709479499326]}}, {"type": "Feature", "properties": {"norad_id": 66052, "name": "HRC MONOBLOCK CAMERA", "group": "stations", "lat": -51.594823561014756, "lon": 87.08097227756085, "alt_km": 412.57141908804624, "timestamp": "2025-12-05T05:43:13.916334+00:00", "meta": {"OBJECT_NAME": "HRC MONOBLOCK CAMERA", "OBJECT_ID": "1998-067XR", "EPOCH": "2025-12-04T14:40:20.041248", "MEAN_MOTION": 15.53353663, "ECCENTRICITY": 0.0004308, "INCLINATION": 51.6287, "RA_OF_ASC_NODE": 182.0122, "ARG_OF_PERICENTER": 151.4621, "MEAN_ANOMALY": 208.6606, "EPHEMERIS_TYPE": 0, "CLASSIFICATION_TYPE": "U", "NORAD_CAT_ID": 66052, "ELEMENT_SET_NO": 999, "REV_AT_EPOCH": 757, "BSTAR": 0.00089797, "MEAN_MOTION_DOT": 0.00057752, "MEAN_MOTION_DDOT": 0}, "tle": {"line1": "1 66052U 98067XR  25338.61134307  .00057752  00000+0  89797-3 0  9993", "line2": "2 66052  51.6287 182.0122 0004308 151.4621 208.6606 15.53353663  7578"}}, "geometry": {"type": "Point", "coordinates": [87.08097227756085, -51.594823561014756]}}, {"type": "Feature", "properties": {"norad_id": 66174, "name": "HTV-X1", "group": "stations", "lat": -50.76331624946792, "lon": 103.64036556196787, "alt_km": 422.58773933915927, "timestamp": "2025-12-05T05:43:13.916345+00:00", "meta": {"OBJECT_NAME": "HTV-X1", "OBJECT_ID": "2025-241A", "EPOCH": "2025-12-04T13:02:29.700384", "MEAN_MOTION": 15.49306035, "ECCENTRICITY": 0.00035956, "INCLINATION": 51.6299, "RA_OF_ASC_NODE": 183.0583, "ARG_OF_PERICENTER": 202.7086, "MEAN_ANOMALY": 157.3744, "EPHEMERIS_TYPE": 0, "CLASSIFICATION_TYPE": "U", "NORAD_CAT_ID": 66174, "ELEMENT_SET_NO": 999, "REV_AT_EPOCH": 51, "BSTAR": 0.00029317999, "MEAN_MOTION_DOT": 0.0001591, "MEAN_MOTION_DDOT": 0}, "tle": {"line1": "1 66174U 25241A   25338.54339931  .00015910  00000+0  29318-3 0  9997", "line2": "2 66174  51.6299 183.0583 0003595 202.7086 157.3744 15.49306035   516"}}, "geometry": {"type": "Point", "coordinates": [103.64036556196787, -50.76331624946792]}}, {"type": "Feature", "properties": {"norad_id": 66515, "name": "SZ-21 MODULE", "group": "stations", "lat": -39.35095722061895, "lon": -6.373334468872951, "alt_km": 383.5329432697026, "timestamp": "2025-12-05T05:43:13.916360+00:00", "meta": {"OBJECT_NAME": "SZ-21 MODULE", "OBJECT_ID": "2025-246C", "EPOCH": "2025-12-04T13:09:11.346336", "MEAN_MOTION": 15.61898737, "ECCENTRICITY": 0.000593, "INCLINATION": 41.4775, "RA_OF_ASC_NODE": 65.9946, "ARG_OF_PERICENTER": 213.3987, "MEAN_ANOMALY": 146.6479, "EPHEMERIS_TYPE": 0, "CLASSIFICATION_TYPE": "U", "NORAD_CAT_ID": 66515, "ELEMENT_SET_NO": 999, "REV_AT_EPOCH": 316, "BSTAR": 0.00052183, "MEAN_MOTION_DOT": 0.00046665, "MEAN_MOTION_DDOT": 0}, "tle": {"line1": "1 66515U 25246C   25338.54804799  .00046665  00000+0  52183-3 0  9997", "line2": "2 66515  41.4775  65.9946 0005930 213.3987 146.6479 15.61898737  3164"}}, "geometry": {"type": "Point", "coordinates": [-6.373334468872951, -39.35095722061895]}}, {"type": "Feature", "properties": {"norad_id": 66645, "name": "SHENZHOU-22", "group": "stations", "lat": 39.23244675468984, "lon": 174.6206090778889, "alt_km": 389.6531717186672, "timestamp": "2025-12-05T05:43:13.916371+00:00", "meta": {"OBJECT_NAME": "SHENZHOU-22", "OBJECT_ID": "2025-272A", "EPOCH": "2025-12-04T15:25:24.990240", "MEAN_MOTION": 15.58669844, "ECCENTRICITY": 0.00099747, "INCLINATION": 41.4682, "RA_OF_ASC_NODE": 65.8455, "ARG_OF_PERICENTER": 328.5002, "MEAN_ANOMALY": 31.5238, "EPHEMERIS_TYPE": 0, "CLASSIFICATION_TYPE": "U", "NORAD_CAT_ID": 66645, "ELEMENT_SET_NO": 999, "REV_AT_EPOCH": 26279, "BSTAR": 0.00047697443, "MEAN_MOTION_DOT": 0.00037639, "MEAN_MOTION_DDOT": 0}, "tle": {"line1": "1 66645U 25272A   25338.64265035  .00037639  00000+0  47697-3 0  9990", "line2": "2 66645  41.4682  65.8455 0009974 328.5002  31.5238 15.58669844262790"}}, "geometry": {"type": "Point", "coordinates": [174.6206090778889, 39.23244675468984]}}, {"type": "Feature", "properties": {"norad_id": 66646, "name": "CZ-2F R/B", "group": "stations", "lat": -1.404820635639702, "lon": 56.22205017377544, "alt_km": 305.9186611004152, "timestamp": "2025-12-05T05:43:13.916381+00:00", "meta": {"OBJECT_NAME": "CZ-2F R/B", "OBJECT_ID": "2025-272B", "EPOCH": "2025-11-26T11:17:54.506400", "MEAN_MOTION": 16.01945612, "ECCENTRICITY": 0.01210796, "INCLINATION": 41.4431, "RA_OF_ASC_NODE": 114.9009, "ARG_OF_PERICENTER": 133.7676, "MEAN_ANOMALY": 227.3272, "EPHEMERIS_TYPE": 0, "CLASSIFICATION_TYPE": "U", "NORAD_CAT_ID": 66646, "ELEMENT_SET_NO": 999, "REV_AT_EPOCH": 21, "BSTAR": 0.00029319366, "MEAN_MOTION_DOT": 0.00449059, "MEAN_MOTION_DDOT": 7.567612e-06}, "tle": {"line1": "1 66646U 25272B   25330.47076975  .00449059  75676-5  29319-3 0  9998", "line2": "2 66646  41.4431 114.9009 0121079 133.7676 227.3272 16.01945612   217"}}, "geometry": {"type": "Point", "coordinates": [56.22205017377544, -1.404820635639702]}}, {"type": "Feature", "properties": {"norad_id": 66664, "name": "SOYUZ-MS 28", "group": "stations", "lat": -50.763313602528484, "lon": 103.64038719030269, "alt_km": 422.5875471289701, "timestamp": "2025-12-05T05:43:13.916391+00:00", "meta": {"OBJECT_NAME": "SOYUZ-MS 28", "OBJECT_ID": "2025-275A", "EPOCH": "2025-12-04T13:02:29.700384", "MEAN_MOTION": 15.49306035, "ECCENTRICITY": 0.0003596, "INCLINATION": 51.6299, "RA_OF_ASC_NODE": 183.0583, "ARG_OF_PERICENTER": 202.7086, "MEAN_ANOMALY": 157.3744, "EPHEMERIS_TYPE": 0, "CLASSIFICATION_TYPE": "U", "NORAD_CAT_ID": 66664, "ELEMENT_SET_NO": 999, "REV_AT_EPOCH": 117, "BSTAR": 0.00029318, "MEAN_MOTION_DOT": 0.0001591, "MEAN_MOTION_DDOT": 0}, "tle": {"line1": "1 66664U 25275A   25338.54339931  .00015910  00000+0  29318-3 0  9998", "line2": "2 66664  51.6299 183.0583 0003596 202.7086 157.3744 15.49306035  1174"}}, "geometry": {"type": "Point", "coordinates": [103.64038719030269, -50.763313602528484]}}]}